NORAD_CAT_ID,OBJECT_NAME,OBJECT_TYPE,EPOCH,MEAN_MOTION,ECCENTRICITY,INCLINATION,RA_OF_ASC_NODE,ARG_OF_PERICENTER,MEAN_ANOMALY,BSTAR,MEAN_MOTION_DOT,MEAN_MOTION_DDOT,TLE_LINE0,TLE_LINE1,TLE_LINE2,SEMIMAJOR_AXIS,PERIOD,APOGEE,PERIGEE,DECAYED
55947.0,STARLINK-5851,PAYLOAD,2023-11-17 04:05:29,14.98337508,0.0002773,69.9998,251.0839,267.2502,92.8339,-9.4165e-05,-1.217e-05,0.0,0 STARLINK-5851,1 55947U 23037AK  23321.17047862 -.00001217  00000-0 -94165-4 0  9993,2 55947  69.9998 251.0839 0002773 267.2502  92.8339 14.98337508 37971,6950.17,96.107,573.962,570.107,0.0
55947.0,STARLINK-5851,PAYLOAD,2023-11-17 05:41:37,14.98338806,0.0002823,69.9999,250.9156,266.8164,93.2672,-8.811e-05,-1.144e-05,0.0,0 STARLINK-5851,1 55947U 23037AK  23321.23723728 -.00001144  00000-0 -88110-4 0  9994,2 55947  69.9999 250.9156 0002823 266.8164  93.2672 14.98338806 37648,6950.166,96.106,573.993,570.069,0.0
55947.0,STARLINK-5851,PAYLOAD,2023-11-18 04:07:30,14.98328364,0.0002319,70.0009,248.5601,273.3924,86.6969,-1.9192e-05,-3.22e-06,0.0,0 STARLINK-5851,1 55947U 23037AK  23322.17188427 -.00000322  00000-0 -19192-4 0  9990,2 55947  70.0009 248.5601 0002319 273.3924  86.6969 14.98328364 38125,6950.198,96.107,573.675,570.451,0.0
55947.0,STARLINK-5851,PAYLOAD,2023-11-18 12:08:10,14.98349888,0.0002471,70.001,247.7173,270.35,89.7376,-0.00033168,-4.05e-05,0.0,0 STARLINK-5851,1 55947U 23037AK  23322.50567736 -.00004050  00000-0 -33168-3 0  9991,2 55947  70.0010 247.7173 0002471 270.3500  89.7376 14.98349888 38173,6950.131,96.106,573.714,570.279,0.0
55947.0,STARLINK-5851,PAYLOAD,2023-11-19 04:09:31,14.98329152,0.0002149,70.0017,246.0329,269.4704,90.6209,6.3452e-06,-1.7e-07,0.0,0 STARLINK-5851,1 55947U 23037AK  23323.17328220 -.00000017  00000-0  63452-5 0  9997,2 55947  70.0017 246.0329 0002149 269.4704  90.6209 14.98329152 38271,6950.196,96.107,573.554,570.567,0.0
55947.0,STARLINK-5851,PAYLOAD,2023-11-19 12:10:12,14.98328414,0.0002019,70.002,245.1918,284.5366,75.5569,-4.0747e-06,-1.41e-06,0.0,0 STARLINK-5851,1 55947U 23037AK  23323.50708449 -.00000141  00000-0 -40747-5 0  9990,2 55947  70.0020 245.1918 0002019 284.5366  75.5569 14.98328414 37985,6950.198,96.107,573.466,570.66,0.0
55947.0,STARLINK-5851,PAYLOAD,2023-11-19 21:47:00,14.9832726,0.0002624,70.0001,244.182,273.3958,86.6901,1.0651e-06,-8e-07,0.0,0 STARLINK-5851,1 55947U 23037AK  23323.90764218 -.00000080  00000-0  10651-5 0  9992,2 55947  70.0001 244.1820 0002624 273.3958  86.6901 14.98327260 38049,6950.201,96.107,573.89,570.243,0.0
55947.0,STARLINK-5851,PAYLOAD,2023-11-20 00:59:12,14.98378944,0.0002885,70.0003,243.8461,266.8203,93.2626,0.00055647,6.561e-05,0.0,0 STARLINK-5851,1 55947U 23037AK  23324.04111756  .00006561  00000-0  55647-3 0  9992,2 55947  70.0003 243.8461 0002885 266.8203  93.2626 14.98378944 38400,6950.042,96.104,573.912,569.901,0.0
55947.0,STARLINK-5851,PAYLOAD,2023-11-20 12:12:12,14.98331617,0.0002641,70.0002,242.6679,272.2259,87.8598,1.6716e-05,1.07e-06,0.0,0 STARLINK-5851,1 55947U 23037AK  23324.50847922  .00000107  00000-0  16716-4 0  9999,2 55947  70.0002 242.6679 0002641 272.2259  87.8598 14.98331617 38479,6950.188,96.107,573.888,570.217,0.0
55947.0,STARLINK-5851,PAYLOAD,2023-11-20 21:49:00,14.98332766,0.0002794,69.9997,241.6583,270.2908,89.7931,-5.6695e-06,-1.61e-06,0.0,0 STARLINK-5851,1 55947U 23037AK  23324.90903762 -.00000161  00000-0 -56695-5 0  9991,2 55947  69.9997 241.6583 0002794 270.2908  89.7931 14.98332766 38197,6950.184,96.107,573.991,570.107,0.0
55947.0,STARLINK-5851,PAYLOAD,2023-11-21 04:13:32,14.9833915,0.0002759,69.9999,240.9849,269.3811,90.7032,3.6304e-05,3.4e-06,0.0,0 STARLINK-5851,1 55947U 23037AK  23325.17607150  .00000340  00000-0  36304-4 0  9994,2 55947  69.9999 240.9849 0002759 269.3811  90.7032 14.98339150 38579,6950.165,96.106,573.947,570.112,0.0
55947.0,STARLINK-5851,PAYLOAD,2023-11-21 20:14:53,14.98327556,0.000255,70.0008,239.302,269.3395,90.7472,6.4986e-06,-1.5e-07,0.0,0 STARLINK-5851,1 55947U 23037AK  23325.84367962 -.00000015  00000-0  64986-5 0  9990,2 55947  70.0008 239.3020 0002550 269.3395  90.7472 14.98327556 38331,6950.2,96.107,573.838,570.293,0.0
55947.0,STARLINK-5851,PAYLOAD,2023-11-22 02:39:26,14.98327264,0.0002638,70.0006,238.6292,273.8158,86.2699,9.0169e-05,9.83e-06,0.0,0 STARLINK-5851,1 55947U 23037AK  23326.11071784  .00000983  00000-0  90169-4 0  9999,2 55947  70.0006 238.6292 0002638 273.8158  86.2699 14.98327264 38715,6950.201,96.107,573.9,570.233,0.0
55947.0,STARLINK-5851,PAYLOAD,2023-11-22 04:15:33,14.98327792,0.0002633,70.0007,238.4611,273.9072,86.1786,0.00012367,1.383e-05,0.0,0 STARLINK-5851,1 55947U 23037AK  23326.17747665  .00001383  00000-0  12367-3 0  9991,2 55947  70.0007 238.4611 0002633 273.9072  86.1786 14.98327792 38385,6950.2,96.107,573.895,570.235,0.0
55947.0,STARLINK-5851,PAYLOAD,2023-11-22 20:16:54,14.98334125,0.0002523,70.0009,236.7773,270.3429,89.7441,3.1278e-05,2.8e-06,0.0,0 STARLINK-5851,1 55947U 23037AK  23326.84507348  .00000280  00000-0  31278-4 0  9995,2 55947  70.0009 236.7773 0002523 270.3429  89.7441 14.98334125 38488,6950.18,96.107,573.799,570.292,0.0
55947.0,STARLINK-5851,PAYLOAD,2023-11-23 02:41:26,14.98328749,0.0002407,70.0005,236.1043,258.4938,101.5951,0.00013647,1.536e-05,0.0,0 STARLINK-5851,1 55947U 23037AK  23327.11211317  .00001536  00000-0  13647-3 0  9998,2 55947  70.0005 236.1043 0002407 258.4938 101.5951 14.98328749 38867,6950.197,96.107,573.735,570.389,0.0
55947.0,STARLINK-5851,PAYLOAD,2023-11-23 04:17:34,14.98337857,0.0002534,70.0005,235.9358,273.278,86.8089,0.00015772,1.79e-05,0.0,0 STARLINK-5851,1 55947U 23037AK  23327.17886770  .00001790  00000-0  15772-3 0  9998,2 55947  70.0005 235.9358 0002534 273.2780  86.8089 14.98337857 38872,6950.169,96.106,573.795,570.272,0.0
55947.0,STARLINK-5851,PAYLOAD,2023-11-23 20:18:56,14.98319553,0.0002143,70.0019,234.2535,261.04,99.0516,-3.3787e-05,-4.96e-06,0.0,0 STARLINK-5851,1 55947U 23037AK  23327.84648442 -.00000496  00000-0 -33787-4 0  9995,2 55947  70.0019 234.2535 0002143 261.0400  99.0516 14.98319553 38971,6950.225,96.108,573.58,570.601,0.0
55947.0,STARLINK-5851,PAYLOAD,2023-11-23 21:55:04,14.98319473,0.0002134,70.0016,234.0853,259.9532,100.1386,-4.3604e-05,-6.13e-06,0.0,0 STARLINK-5851,1 55947U 23037AK  23327.91324503 -.00000613  00000-0 -43604-4 0  9992,2 55947  70.0016 234.0853 0002134 259.9532 100.1386 14.98319473 38645,6950.225,96.108,573.574,570.607,0.0
55947.0,STARLINK-5851,PAYLOAD,2023-11-24 04:19:36,14.98321867,0.0002268,70.0006,233.4105,261.8662,98.224,-3.7063e-05,-5.35e-06,0.0,0 STARLINK-5851,1 55947U 23037AK  23328.18028456 -.00000535  00000-0 -37063-4 0  9995,2 55947  70.0006 233.4105 0002268 261.8662  98.2240 14.98321867 38681,6950.218,96.108,573.659,570.507,0.0
55947.0,STARLINK-5851,PAYLOAD,2023-11-24 20:20:56,14.98329188,0.00027,69.9999,231.7273,268.9591,91.1259,-4.5582e-06,-1.47e-06,0.0,0 STARLINK-5851,1 55947U 23037AK  23328.84787952 -.00000147  00000-0 -45582-5 0  9996,2 55947  69.9999 231.7273 0002700 268.9591  91.1259 14.98329188 39122,6950.195,96.107,573.937,570.184,0.0
55947.0,STARLINK-5851,PAYLOAD,2023-11-24 21:57:04,14.98329276,0.0002626,69.9999,231.559,267.3644,92.7215,3.3849e-06,-5.3e-07,0.0,0 STARLINK-5851,1 55947U 23037AK  23328.91463938 -.00000053  00000-0  33849-5 0  9997,2 55947  69.9999 231.5590 0002626 267.3644  92.7215 14.98329276 38790,6950.195,96.107,573.885,570.235,0.0
55947.0,STARLINK-5851,PAYLOAD,2023-11-25 02:45:28,14.98335902,0.0002564,70.0001,231.0552,254.7429,105.3446,7.3299e-05,7.82e-06,0.0,0 STARLINK-5851,1 55947U 23037AK  23329.11491245  .00000782  00000-0  73299-4 0  9992,2 55947  70.0001 231.0552 0002564 254.7429 105.3446 14.98335902 39164,6950.175,96.107,573.822,570.258,0.0
55947.0,STARLINK-5851,PAYLOAD,2023-11-25 04:21:36,14.98341467,0.0002473,70.0,230.8868,266.0616,94.026,0.00012602,1.411e-05,0.0,0 STARLINK-5851,1 55947U 23037AK  23329.18166904  .00001411  00000-0  12602-3 0  9990,2 55947  70.0000 230.8868 0002473 266.0616  94.0260 14.98341467 38837,6950.157,96.106,573.741,570.304,0.0
55947.0,STARLINK-5851,PAYLOAD,2023-11-25 21:59:05,14.98331388,0.0002596,70.0006,229.0351,267.554,92.5322,0.00014082,1.588e-05,0.0,0 STARLINK-5851,1 55947U 23037AK  23329.91603357  .00001588  00000-0  14082-3 0  9998,2 55947  70.0006 229.0351 0002596 267.5540  92.5322 14.98331388 38943,6950.189,96.107,573.858,570.249,0.0
55947.0,STARLINK-5851,PAYLOAD,2023-11-26 02:47:28,14.98343921,0.000227,70.0007,228.5297,275.8378,84.2523,0.00030081,3.499e-05,0.0,0 STARLINK-5851,1 55947U 23037AK  23330.11630162  .00003499  00000-0  30081-3 0  9996,2 55947  70.0007 228.5297 0002270 275.8378  84.2523 14.98343921 39316,6950.15,96.106,573.593,570.437,0.0
55947.0,STARLINK-5851,PAYLOAD,2023-11-26 18:48:51,14.98320132,0.0002608,70.0049,226.8541,211.0653,149.0352,-5.995e-05,-8.08e-06,0.0,0 STARLINK-5851,1 55947U 23037AK  23330.78392469 -.00000808  00000-0 -59950-4 0  9994,2 55947  70.0049 226.8541 0002608 211.0653 149.0352 14.98320132 39418,6950.223,96.108,573.901,570.276,0.0
55947.0,STARLINK-5851,PAYLOAD,2023-11-26 22:01:07,14.98321176,0.0002595,70.0014,226.5144,236.1967,123.8945,-0.00013359,-1.686e-05,0.0,0 STARLINK-5851,1 55947U 23037AK  23330.91744669 -.00001686  00000-0 -13359-3 0  9999,2 55947  70.0014 226.5144 0002595 236.1967 123.8945 14.98321176 39098,6950.22,96.108,573.889,570.282,0.0
55947.0,STARLINK-5851,PAYLOAD,2023-11-27 02:49:31,14.98320062,0.000264,70.0002,226.0064,254.7267,105.36,-0.00014735,-1.85e-05,0.0,0 STARLINK-5851,1 55947U 23037AK  23331.11772900 -.00001850  00000-0 -14735-3 0  9993,2 55947  70.0002 226.0064 0002640 254.7267 105.3600 14.98320062 39121,6950.224,96.108,573.923,570.254,0.0
55947.0,STARLINK-5851,PAYLOAD,2023-11-27 18:50:51,14.98331454,0.0002709,70.0001,224.3198,254.3188,105.7672,-4.9483e-05,-6.83e-06,0.0,0 STARLINK-5851,1 55947U 23037AK  23331.78531993 -.00000683  00000-0 -49483-4 0  9993,2 55947  70.0001 224.3198 0002709 254.3188 105.7672 14.98331454 39561,6950.188,96.107,573.936,570.171,0.0
